SWAS                    
1 25560U 98071A   26068.53487068  .00004636  00000+0  29986-3 0  9991
2 25560  69.8952 124.3662 0004099  14.3215 345.8065 15.08888192482231
STARLINK-3895           
1 52583U 22051AZ  26068.53804895 -.00000417  00000+0 -81053-5 0  9992
2 52583  53.2175 119.8017 0001393  90.7443 269.3709 15.08840669211566
