[{"OBJECT_NAME":"SWAS","OBJECT_ID":"1998-071A","EPOCH":"2026-03-09T12:50:12.826752","MEAN_MOTION":15.08888192,"ECCENTRICITY":0.00040991,"INCLINATION":69.8952,"RA_OF_ASC_NODE":124.3662,"ARG_OF_PERICENTER":14.3215,"MEAN_ANOMALY":345.8065,"EPHEMERIS_TYPE":0,"CLASSIFICATION_TYPE":"U","NORAD_CAT_ID":25560,"ELEMENT_SET_NO":999,"REV_AT_EPOCH":48223,"BSTAR":0.00029986322,"MEAN_MOTION_DOT":4.636e-5,"MEAN_MOTION_DDOT":0},{"OBJECT_NAME":"STARLINK-3895","OBJECT_ID":"2022-051AZ","EPOCH":"2026-03-09T12:54:47.429280","MEAN_MOTION":15.08840669,"ECCENTRICITY":0.00013931,"INCLINATION":53.2175,"RA_OF_ASC_NODE":119.8017,"ARG_OF_PERICENTER":90.7443,"MEAN_ANOMALY":269.3709,"EPHEMERIS_TYPE":0,"CLASSIFICATION_TYPE":"U","NORAD_CAT_ID":52583,"ELEMENT_SET_NO":999,"REV_AT_EPOCH":21156,"BSTAR":-8.105283e-6,"MEAN_MOTION_DOT":-4.17e-6,"MEAN_MOTION_DDOT":0}]
